NORAD_CAT_ID,OBJECT_NAME,OBJECT_TYPE,EPOCH,MEAN_MOTION,ECCENTRICITY,INCLINATION,RA_OF_ASC_NODE,ARG_OF_PERICENTER,MEAN_ANOMALY,BSTAR,MEAN_MOTION_DOT,MEAN_MOTION_DDOT,TLE_LINE0,TLE_LINE1,TLE_LINE2,SEMIMAJOR_AXIS,PERIOD,APOGEE,PERIGEE,DECAYED
54174.0,STARLINK-5248,PAYLOAD,2024-05-03 15:28:13,15.08843668,0.000148,53.2174,99.2578,86.192,273.9242,0.0001269,1.732e-05,0.0,0 STARLINK-5248,1 54174U 22141T   24124.64460626  .00001732  00000-0  12690-3 0  9992,2 54174  53.2174  99.2578 0001480  86.1920 273.9242 15.08843668 84712,6917.869,95.437,540.758,538.71,0.0
54174.0,STARLINK-5248,PAYLOAD,2024-05-04 04:11:20,15.08828531,0.0001332,53.2172,96.8777,86.0572,274.0572,-1.3092e-06,-3.09e-06,0.0,0 STARLINK-5248,1 54174U 22141T   24125.17454241 -.00000309  00000-0 -13092-5 0  9997,2 54174  53.2172  96.8777 0001332  86.0572 274.0572 15.08828531 84790,6917.915,95.438,540.702,538.859,0.0
54174.0,STARLINK-5248,PAYLOAD,2024-05-04 21:40:34,15.08842384,0.0001447,53.2167,93.6067,85.6437,274.472,8.3319e-05,1.038e-05,0.0,0 STARLINK-5248,1 54174U 22141T   24125.90317335  .00001038  00000-0  83319-4 0  9996,2 54174  53.2167  93.6067 0001447  85.6437 274.4720 15.08842384 84907,6917.873,95.437,540.739,538.737,0.0
54174.0,STARLINK-5248,PAYLOAD,2024-05-05 07:12:52,15.08850437,0.0001393,53.216,91.8223,85.8084,274.3068,0.00036578,5.54e-05,0.0,0 STARLINK-5248,1 54174U 22141T   24126.30061118  .00005540  00000-0  36578-3 0  9992,2 54174  53.2160  91.8223 0001393  85.8084 274.3068 15.08850437 84973,6917.848,95.437,540.677,538.75,0.0
54174.0,STARLINK-5248,PAYLOAD,2024-05-06 07:03:39,15.08870425,0.0001416,53.2165,87.3601,90.23,269.8854,0.00085596,0.00013372,0.0,0 STARLINK-5248,1 54174U 22141T   24127.29420394  .00013372  00000-0  85596-3 0  9992,2 54174  53.2165  87.3601 0001416  90.2300 269.8854 15.08870425 85124,6917.787,95.436,540.632,538.673,0.0
54174.0,STARLINK-5248,PAYLOAD,2024-05-07 03:43:39,15.08853858,0.000149,53.216,83.4926,89.6215,270.4948,0.00021104,3.074e-05,0.0,0 STARLINK-5248,1 54174U 22141T   24128.15532044  .00003074  00000-0  21104-3 0  9997,2 54174  53.2160  83.4926 0001490  89.6215 270.4948 15.08853858 85241,6917.838,95.437,540.734,538.672,0.0
54174.0,STARLINK-5248,PAYLOAD,2024-05-08 03:34:27,15.08834132,0.0001297,53.2165,79.0355,87.753,272.3611,-0.00016357,-2.89e-05,0.0,0 STARLINK-5248,1 54174U 22141T   24129.14893046 -.00002890  00000-0 -16357-3 0  9990,2 54174  53.2165  79.0355 0001297  87.7530 272.3611 15.08834132 85395,6917.898,95.438,540.661,538.866,0.0
54174.0,STARLINK-5248,PAYLOAD,2024-05-08 13:06:44,15.08862092,0.0001308,53.2168,77.2502,101.6553,258.4587,0.00027655,4.119e-05,0.0,0 STARLINK-5248,1 54174U 22141T   24129.54635307  .00004119  00000-0  27655-3 0  9995,2 54174  53.2168  77.2502 0001308 101.6553 258.4587 15.08862092 85467,6917.813,95.436,540.583,538.773,0.0
54174.0,STARLINK-5248,PAYLOAD,2024-05-09 03:25:12,15.08834167,0.0001065,53.2169,74.5743,75.3563,284.7547,-0.00032602,-5.472e-05,0.0,0 STARLINK-5248,1 54174U 22141T   24130.14250208 -.00005472  00000-0 -32602-3 0  9999,2 54174  53.2169  74.5743 0001065  75.3563 284.7547 15.08834167 85542,6917.898,95.438,540.5,539.026,0.0
54174.0,STARLINK-5248,PAYLOAD,2024-05-09 12:57:31,15.08822155,0.0001541,53.2166,72.7928,64.6704,295.4447,-0.00041485,-6.881e-05,0.0,0 STARLINK-5248,1 54174U 22141T   24130.53995249 -.00006881  00000-0 -41485-3 0  9997,2 54174  53.2166  72.7928 0001541  64.6704 295.4447 15.08822155 85611,6917.935,95.439,540.866,538.734,0.0
54174.0,STARLINK-5248,PAYLOAD,2024-05-10 03:16:02,15.08780999,0.0001064,53.2174,70.115,97.5348,262.5765,-0.00080481,-0.00013053,0.0,0 STARLINK-5248,1 54174U 22141T   24131.13614490 -.00013053  00000-0 -80481-3 0  9998,2 54174  53.2174  70.1150 0001064  97.5348 262.5765 15.08780999 85693,6918.061,95.441,540.662,539.19,0.0
54174.0,STARLINK-5248,PAYLOAD,2024-05-10 12:48:21,15.08804011,9.86e-05,53.2176,68.3314,118.0185,242.0907,-0.00041774,-6.923e-05,0.0,0 STARLINK-5248,1 54174U 22141T   24131.53358256 -.00006923  00000-0 -41774-3 0  9997,2 54174  53.2176  68.3314 0000986 118.0185 242.0907 15.08804011 85756,6917.99,95.44,540.538,539.173,0.0
54174.0,STARLINK-5248,PAYLOAD,2024-05-10 15:59:05,15.08851757,0.0001211,53.2178,67.7367,123.9572,236.1535,-0.00070743,-0.00011532,0.0,0 STARLINK-5248,1 54174U 22141T   24131.66603971 -.00011532  00000-0 -70743-3 0  9998,2 54174  53.2178  67.7367 0001211 123.9572 236.1535 15.08851757 85778,6917.844,95.437,540.547,538.872,0.0
54174.0,STARLINK-5248,PAYLOAD,2024-05-11 03:06:47,15.08871134,0.0001238,53.2174,65.6568,124.8038,235.307,0.0014649,0.00023123,0.0,0 STARLINK-5248,1 54174U 22141T   24132.12971859  .00023123  00000-0  14649-2 0  9992,2 54174  53.2174  65.6568 0001238 124.8038 235.3070 15.08871134 85844,6917.785,95.436,540.507,538.794,0.0
54174.0,STARLINK-5248,PAYLOAD,2024-05-11 19:00:38,15.08888531,0.0002015,53.218,62.6816,101.3449,258.777,0.0010191,0.0001599,0.0,0 STARLINK-5248,1 54174U 22141T   24132.79211468  .00015990  00000-0  10191-2 0  9999,2 54174  53.2180  62.6816 0002015 101.3449 258.7770 15.08888531 85940,6917.732,95.434,540.991,538.203,0.0
54174.0,STARLINK-5248,PAYLOAD,2024-05-12 04:33:01,15.08736391,9.64e-05,53.2181,60.8974,102.6079,257.5021,-0.0032057,-0.00050802,0.0,0 STARLINK-5248,1 54174U 22141T   24133.18960331 -.00050802  00000-0 -32057-2 0  9991,2 54174  53.2181  60.8974 0000964 102.6079 257.5021 15.08736391 86000,6918.197,95.444,540.729,539.395,0.0
54174.0,STARLINK-5248,PAYLOAD,2024-05-12 12:29:58,15.08751961,0.0001085,53.2186,59.4118,112.8717,247.2389,-0.0017831,-0.00028485,0.0,0 STARLINK-5248,1 54174U 22141T   24133.52081746 -.00028485  00000-0 -17831-2 0  9998,2 54174  53.2186  59.4118 0001085 112.8717 247.2389 15.08751961 86054,6918.15,95.443,540.765,539.264,0.0
54174.0,STARLINK-5248,PAYLOAD,2024-05-13 04:23:51,15.08807108,0.0001431,53.2184,56.4359,103.5743,256.5408,0.0013908,0.00021896,0.0,0 STARLINK-5248,1 54174U 22141T   24134.18323492  .00021896  00000-0  13908-2 0  9996,2 54174  53.2184  56.4359 0001431 103.5743 256.5408 15.08807108 86158,6917.981,95.44,540.836,538.856,0.0
54174.0,STARLINK-5248,PAYLOAD,2024-05-13 12:20:47,15.08839417,0.000156,53.2193,54.9519,100.4905,259.6263,0.0013836,0.000218,0.0,0 STARLINK-5248,1 54174U 22141T   24134.51443727  .00021800  00000-0  13836-2 0  9992,2 54174  53.2193  54.9519 0001560 100.4905 259.6263 15.08839417 86205,6917.882,95.438,540.826,538.668,0.0
54174.0,STARLINK-5248,PAYLOAD,2024-05-14 04:14:37,15.0888884,0.000132,53.2178,51.9779,94.5838,265.5304,0.001385,0.00021852,0.0,0 STARLINK-5248,1 54174U 22141T   24135.17681727  .00021852  00000-0  13850-2 0  9992,2 54174  53.2178  51.9779 0001320  94.5838 265.5304 15.08888840 86302,6917.731,95.434,540.509,538.683,0.0
54174.0,STARLINK-5248,PAYLOAD,2024-05-14 21:43:49,15.08900403,0.0001337,53.2182,48.7057,99.9987,260.1156,0.0010794,0.00016961,0.0,0 STARLINK-5248,1 54174U 22141T   24135.90543328  .00016961  00000-0  10794-2 0  9996,2 54174  53.2182  48.7057 0001337  99.9987 260.1156 15.08900403 86421,6917.696,95.434,540.486,538.636,0.0
54174.0,STARLINK-5248,PAYLOAD,2024-05-15 04:05:20,15.08906413,0.000149,53.2186,47.5159,91.8975,268.2188,0.00079206,0.00012363,0.0,0 STARLINK-5248,1 54174U 22141T   24136.17038187  .00012363  00000-0  79206-3 0  9994,2 54174  53.2186  47.5159 0001490  91.8975 268.2188 15.08906413 86457,6917.677,95.433,540.573,538.512,0.0
54174.0,STARLINK-5248,PAYLOAD,2024-05-15 18:23:48,15.08864897,0.0001527,53.2197,44.8398,87.2783,272.8384,-0.00024555,-4.197e-05,0.0,0 STARLINK-5248,1 54174U 22141T   24136.76653825 -.00004197  00000-0 -24555-3 0  9996,2 54174  53.2197  44.8398 0001527  87.2783 272.8384 15.08864897 86549,6917.804,95.436,540.726,538.613,0.0
54174.0,STARLINK-5248,PAYLOAD,2024-05-15 21:34:34,15.08872299,0.000138,53.2189,44.2443,104.5512,255.5633,8.5996e-06,-1.51e-06,0.0,0 STARLINK-5248,1 54174U 22141T   24136.89901493 -.00000151  00000-0  85996-5 0  9990,2 54174  53.2189  44.2443 0001380 104.5512 255.5633 15.08872299 86578,6917.782,95.436,540.601,538.692,0.0
54174.0,STARLINK-5248,PAYLOAD,2024-05-16 00:45:20,15.08880137,0.0001309,53.2187,43.65,104.5624,255.5513,0.00074768,0.00011644,0.0,0 STARLINK-5248,1 54174U 22141T   24137.03149125  .00011644  00000-0  74768-3 0  9994,2 54174  53.2187  43.6500 0001309 104.5624 255.5513 15.08880137 86586,6917.758,95.435,540.528,538.717,0.0
54174.0,STARLINK-5248,PAYLOAD,2024-05-16 10:17:39,15.08865927,0.0001309,53.2191,41.8664,103.418,256.6958,0.00060915,9.427e-05,0.0,0 STARLINK-5248,1 54174U 22141T   24137.42892869  .00009427  00000-0  60915-3 0  9992,2 54174  53.2191  41.8664 0001309 103.4180 256.6958 15.08865927 86649,6917.801,95.436,540.572,538.761,0.0
54174.0,STARLINK-5248,PAYLOAD,2024-05-16 18:14:35,15.08851024,0.0002377,53.218,40.3794,77.3115,282.8142,0.00082069,0.00012801,0.0,0 STARLINK-5248,1 54174U 22141T   24137.76013379  .00012801  00000-0  82069-3 0  9994,2 54174  53.2180  40.3794 0002377  77.3115 282.8142 15.08851024 86692,6917.847,95.437,541.356,538.067,0.0
54174.0,STARLINK-5248,PAYLOAD,2024-05-17 10:08:28,15.08783876,0.000154,53.2181,37.4065,59.3809,300.7335,-0.0002787,-4.714e-05,0.0,0 STARLINK-5248,1 54174U 22141T   24138.42255573 -.00004714  00000-0 -27870-3 0  9997,2 54174  53.2181  37.4065 0001540  59.3809 300.7335 15.08783876 86796,6918.052,95.441,540.982,538.852,0.0
54174.0,STARLINK-5248,PAYLOAD,2024-05-17 22:51:34,15.08814909,0.0001274,53.218,35.0268,26.1011,334.0046,0.0020044,0.00031734,0.0,0 STARLINK-5248,1 54174U 22141T   24138.95248617  .00031734  00000-0  20044-2 0  9991,2 54174  53.2180  35.0268 0001274  26.1011 334.0046 15.08814909 86886,6917.957,95.439,540.703,538.941,0.0
54174.0,STARLINK-5248,PAYLOAD,2024-05-18 02:02:21,15.08868367,0.0002162,53.2179,34.433,60.7463,299.3745,0.0043094,0.00069023,0.0,0 STARLINK-5248,1 54174U 22141T   24139.08496692  .00069023  00000-0  43094-2 0  9996,2 54174  53.2179  34.4330 0002162  60.7463 299.3745 15.08868367 86896,6917.794,95.436,541.154,538.163,0.0
